O3B FM5                 
1 39188U 13031A   26063.09760381 -.00000028  00000+0  00000+0 0  9997
2 39188   0.0976  14.1291 0003337 319.9767  25.8709  5.00116461231774
O3B FM4                 
1 39189U 13031B   26062.81697351 -.00000028  00000+0  00000+0 0  9993
2 39189   0.0555 345.1409 0005037   5.4008   9.4419  5.00115238231777
O3B FM2                 
1 39190U 13031C   26063.08254995 -.00000028  00000+0  00000+0 0  9998
2 39190   0.0565 339.0319 0002838   0.9260  20.0242  5.00115986231850
O3B PFM                 
1 39191U 13031D   26062.29709969 -.00000028  00000+0  00000+0 0  9997
2 39191   0.0664   7.6623 0005107 349.0732   3.2541  5.00116017231378
O3B FM3                 
1 40079U 14038A   26062.96339516 -.00000028  00000+0  00000+0 0  9993
2 40079   0.0530 353.4529 0000544  51.5720 314.9728  5.00115554207788
O3B FM7                 
1 40080U 14038B   26061.31035470 -.00000029  00000+0  00000+0 0  9996
2 40080   0.0588 348.9474 0004488 339.4059  31.6123  5.00115622212532
O3B FM6                 
1 40081U 14038C   26059.33845883 -.00000028  00000+0  00000+0 0  9992
2 40081   0.0550 351.2998 0002672 345.9055  22.7755  5.00115665212383
O3B FM8                 
1 40082U 14038D   26063.58947926 -.00000027  00000+0  00000+0 0  9995
2 40082   0.0558 350.6431 0002658 354.8269  14.5160  5.00115977212719
O3B FM10                
1 40348U 14083A   26062.81697293 -.00000028  00000+0  00000+0 0  9995
2 40348   0.0434 347.2948 0002686 353.8137  18.8747  5.00115218204623
O3B FM11                
1 40349U 14083B   26063.02958680 -.00000028  00000+0  00000+0 0  9990
2 40349   0.0566   0.5146 0003136 331.2544  28.2073  5.00115582204656
O3B FM12                
1 40350U 14083C   26062.45701119 -.00000028  00000+0  00000+0 0  9991
2 40350   0.0560 359.7796 0002643 337.6957  22.5061  5.00115945204637
O3B FM9                 
1 40351U 14083D   26063.68318304 -.00000027  00000+0  00000+0 0  9997
2 40351   0.0578   0.7445 0002735 341.4935  17.7461  5.00115939204848
LEO 1 (LEO VANTAGE 1)   
1 43113U 18004C   26063.31879630  .00006456  00000+0  44658-3 0  9999
2 43113  99.2485 327.9417 0353352  41.3399 321.3978 14.67122514422109
O3B FM15                
1 43231U 18024A   26062.95038387 -.00000028  00000+0  00000+0 0  9996
2 43231   0.0484   0.7666 0002702 337.6890  21.5262  5.00115661145769
O3B FM16                
1 43232U 18024B   26059.80451050 -.00000028  00000+0  00000+0 0  9993
2 43232   0.0446   2.3185 0002785 333.1821  24.4786  5.00115846145520
O3B FM14                
1 43233U 18024C   26063.04351249 -.00000028  00000+0  00000+0 0  9994
2 43233   0.0433   1.5385 0002846 342.0948  16.3508  5.00115627145694
O3B FM13                
1 43234U 18024D   26062.10991137 -.00000028  00000+0  00000+0 0  9997
2 43234   0.0485 331.6373 0004295 331.6147  56.6997  5.00115687145742
